start=new Date('2022-01-13T00:00:00.000Z').valueOf();
sats=[{"COUNTRY_CODE":"US","RA_OF_ASC_NODE":"147.0737","GP_ID":"193733059","ECCENTRICITY":"0.00020180","APOAPSIS":"548.590","MEAN_MOTION_DOT":"-0.00000050","INCLINATION":"53.0516","OBJECT_TYPE":"PAYLOAD","EPHEMERIS_TYPE":"0","OBJECT_NAME":"STARLINK-1648","NORAD_CAT_ID":"46533","CLASSIFICATION_TYPE":"U","RCS_SIZE":"LARGE","ELEMENT_SET_NO":"999","ARG_OF_PERICENTER":"95.7594","CENTER_NAME":"EARTH","TLE_LINE1":"1 46533U 20070B   22012.60642339 -.00000050  00000-0  15578-4 0  9996","DECAY_DATE":null,"TLE_LINE2":"2 46533  53.0516 147.0737 0002018  95.7594 264.3625 15.06406767 70841","TIME_SYSTEM":"UTC","SEMIMAJOR_AXIS":"6925.328","LAUNCH_DATE":"2020-10-06","SITE":"AFETR","BSTAR":"0.00001557800000","MEAN_ELEMENT_THEORY":"SGP4","MEAN_MOTION_DDOT":"0.0000000000000","MEAN_ANOMALY":"264.3625","OBJECT_ID":"2020-070B","FILE":"3270709","PERIAPSIS":"545.795","EPOCH":"2022-01-12T14:33:14.980896","REV_AT_EPOCH":"7084","MEAN_MOTION":"15.06406767","PERIOD":"95.592","REF_FRAME":"TEME"},{"RA_OF_ASC_NODE":"147.1473","COUNTRY_CODE":"US","INCLINATION":"53.0552","MEAN_MOTION_DOT":"-0.00002320","OBJECT_TYPE":"PAYLOAD","OBJECT_NAME":"STARLINK-1659","NORAD_CAT_ID":"46534","EPHEMERIS_TYPE":"0","GP_ID":"193733311","ECCENTRICITY":"0.00017130","APOAPSIS":"548.356","RCS_SIZE":"LARGE","CLASSIFICATION_TYPE":"U","ELEMENT_SET_NO":"999","CENTER_NAME":"EARTH","ARG_OF_PERICENTER":"90.2398","TLE_LINE1":"1 46534U 20070C   22012.58799012 -.00002320  00000-0 -13685-3 0  9994","DECAY_DATE":null,"TLE_LINE2":"2 46534  53.0552 147.1473 0001713  90.2398 269.8787 15.06414398 70841","SEMIMAJOR_AXIS":"6925.304","TIME_SYSTEM":"UTC","LAUNCH_DATE":"2020-10-06","BSTAR":"-0.00013685000000","MEAN_ELEMENT_THEORY":"SGP4","SITE":"AFETR","MEAN_MOTION_DDOT":"0.0000000000000","MEAN_ANOMALY":"269.8787","FILE":"3270709","OBJECT_ID":"2020-070C","EPOCH":"2022-01-12T14:06:42.346368","PERIAPSIS":"545.983","REV_AT_EPOCH":"7084","PERIOD":"95.591","REF_FRAME":"TEME","MEAN_MOTION":"15.06414398"},{"LAUNCH_DATE":"2020-10-06","BSTAR":"0.00000257680000","MEAN_ELEMENT_THEORY":"SGP4","SITE":"AFETR","MEAN_MOTION_DDOT":"0.0000000000000","MEAN_ANOMALY":"266.7227","FILE":"3270568","OBJECT_ID":"2020-070D","EPOCH":"2022-01-12T15:26:20.237856","PERIAPSIS":"545.896","REV_AT_EPOCH":"7086","PERIOD":"95.593","REF_FRAME":"TEME","MEAN_MOTION":"15.06391995","RA_OF_ASC_NODE":"146.9099","COUNTRY_CODE":"US","INCLINATION":"53.0541","MEAN_MOTION_DOT":"-0.00000243","OBJECT_TYPE":"PAYLOAD","NORAD_CAT_ID":"46535","OBJECT_NAME":"STARLINK-1663","EPHEMERIS_TYPE":"0","GP_ID":"193708851","ECCENTRICITY":"0.00019380","APOAPSIS":"548.580","RCS_SIZE":"LARGE","CLASSIFICATION_TYPE":"U","ELEMENT_SET_NO":"999","CENTER_NAME":"EARTH","ARG_OF_PERICENTER":"93.3983","TLE_LINE1":"1 46535U 20070D   22012.64328979 -.00000243  00000-0  25768-5 0  9990","DECAY_DATE":null,"TLE_LINE2":"2 46535  53.0541 146.9099 0001938  93.3983 266.7227 15.06391995 70868","SEMIMAJOR_AXIS":"6925.373","TIME_SYSTEM":"UTC"},{"LAUNCH_DATE":"2020-10-06","MEAN_ELEMENT_THEORY":"SGP4","BSTAR":"0.00040174000000","SITE":"AFETR","MEAN_MOTION_DDOT":"0.0000000000000","MEAN_ANOMALY":"2.9819","FILE":"3270709","OBJECT_ID":"2020-070E","EPOCH":"2022-01-12T11:01:43.468896","PERIAPSIS":"310.361","REV_AT_EPOCH":"7170","REF_FRAME":"TEME","PERIOD":"90.957","MEAN_MOTION":"15.83160606","RA_OF_ASC_NODE":"84.9201","COUNTRY_CODE":"US","OBJECT_TYPE":"PAYLOAD","NORAD_CAT_ID":"46536","EPHEMERIS_TYPE":"0","OBJECT_NAME":"STARLINK-1668","INCLINATION":"53.0517","MEAN_MOTION_DOT":"0.00089292","APOAPSIS":"332.661","GP_ID":"193734313","ECCENTRICITY":"0.00166430","RCS_SIZE":"LARGE","CLASSIFICATION_TYPE":"U","ELEMENT_SET_NO":"999","CENTER_NAME":"EARTH","ARG_OF_PERICENTER":"357.1104","DECAY_DATE":null,"TLE_LINE1":"1 46536U 20070E   22012.45953089  .00089292  00000-0  40174-3 0  9992","TLE_LINE2":"2 46536  53.0517  84.9201 0016643 357.1104   2.9819 15.83160606 71702","SEMIMAJOR_AXIS":"6699.646","TIME_SYSTEM":"UTC"},{"TLE_LINE2":"2 46537  53.0533 147.0891 0002106  99.0889 261.0338 15.06395103 70843","SEMIMAJOR_AXIS":"6925.364","TIME_SYSTEM":"UTC","ARG_OF_PERICENTER":"99.0889","CENTER_NAME":"EARTH","TLE_LINE1":"1 46537U 20070F   22012.60274323 -.00000389  00000-0 -71850-5 0  9996","DECAY_DATE":null,"CLASSIFICATION_TYPE":"U","RCS_SIZE":"LARGE","ELEMENT_SET_NO":"999","COUNTRY_CODE":"US","RA_OF_ASC_NODE":"147.0891","GP_ID":"193733559","ECCENTRICITY":"0.00021060","APOAPSIS":"548.687","INCLINATION":"53.0533","MEAN_MOTION_DOT":"-0.00000389","OBJECT_NAME":"STARLINK-1672","OBJECT_TYPE":"PAYLOAD","NORAD_CAT_ID":"46537","EPHEMERIS_TYPE":"0","REV_AT_EPOCH":"7084","MEAN_MOTION":"15.06395103","PERIOD":"95.592","REF_FRAME":"TEME","OBJECT_ID":"2020-070F","FILE":"3270709","PERIAPSIS":"545.770","EPOCH":"2022-01-12T14:27:57.015072","MEAN_MOTION_DDOT":"0.0000000000000","MEAN_ANOMALY":"261.0338","LAUNCH_DATE":"2020-10-06","SITE":"AFETR","BSTAR":"-0.00000718500000","MEAN_ELEMENT_THEORY":"SGP4"},{"DECAY_DATE":null,"TLE_LINE1":"1 46538U 20070G   22012.64697457  .00000146  00000-0  28692-4 0  9992","ARG_OF_PERICENTER":"90.4895","CENTER_NAME":"EARTH","SEMIMAJOR_AXIS":"6925.367","TIME_SYSTEM":"UTC","TLE_LINE2":"2 46538  53.0539 146.8892 0001760  90.4895 269.6295 15.06394008 70552","APOAPSIS":"548.451","GP_ID":"193709058","ECCENTRICITY":"0.00017600","EPHEMERIS_TYPE":"0","OBJECT_TYPE":"PAYLOAD","OBJECT_NAME":"STARLINK-1678","NORAD_CAT_ID":"46538","INCLINATION":"53.0539","MEAN_MOTION_DOT":"0.00000146","COUNTRY_CODE":"US","RA_OF_ASC_NODE":"146.8892","ELEMENT_SET_NO":"999","CLASSIFICATION_TYPE":"U","RCS_SIZE":"LARGE","PERIAPSIS":"546.013","EPOCH":"2022-01-12T15:31:38.602848","OBJECT_ID":"2020-070G","FILE":"3270571","MEAN_MOTION":"15.06394008","REF_FRAME":"TEME","PERIOD":"95.593","REV_AT_EPOCH":"7055","SITE":"AFETR","MEAN_ELEMENT_THEORY":"SGP4","BSTAR":"0.00002869200000","LAUNCH_DATE":"2020-10-06","MEAN_ANOMALY":"269.6295","MEAN_MOTION_DDOT":"0.0000000000000"},{"MEAN_MOTION_DDOT":"0.0000000000000","MEAN_ANOMALY":"288.6760","LAUNCH_DATE":"2020-10-06","SITE":"AFETR","MEAN_ELEMENT_THEORY":"SGP4","BSTAR":"0.01099100000000","REV_AT_EPOCH":"7066","MEAN_MOTION":"15.50413720","REF_FRAME":"TEME","PERIOD":"92.878","OBJECT_ID":"2020-070H","FILE":"3270572","PERIAPSIS":"414.333","EPOCH":"2022-01-12T15:10:57.956736","CLASSIFICATION_TYPE":"U","RCS_SIZE":"LARGE","ELEMENT_SET_NO":"999","COUNTRY_CODE":"US","RA_OF_ASC_NODE":"139.8436","APOAPSIS":"416.705","GP_ID":"193709095","ECCENTRICITY":"0.00017460","OBJECT_TYPE":"PAYLOAD","EPHEMERIS_TYPE":"0","OBJECT_NAME":"STARLINK-1684","NORAD_CAT_ID":"46539","MEAN_MOTION_DOT":"0.00684680","INCLINATION":"53.0484","TLE_LINE2":"2 46539  53.0484 139.8436 0001746  71.4437 288.6760 15.50413720 70665","SEMIMAJOR_AXIS":"6793.654","TIME_SYSTEM":"UTC","ARG_OF_PERICENTER":"71.4437","CENTER_NAME":"EARTH","TLE_LINE1":"1 46539U 20070H   22012.63261524  .00684680  00000-0  10991-1 0  9995","DECAY_DATE":null},{"ELEMENT_SET_NO":"999","RCS_SIZE":"LARGE","CLASSIFICATION_TYPE":"U","MEAN_MOTION_DOT":"-0.00001426","INCLINATION":"53.0565","OBJECT_TYPE":"PAYLOAD","EPHEMERIS_TYPE":"0","OBJECT_NAME":"STARLINK-1687","NORAD_CAT_ID":"46541","GP_ID":"193709012","ECCENTRICITY":"0.00016650","APOAPSIS":"548.384","RA_OF_ASC_NODE":"126.9711","COUNTRY_CODE":"US","SEMIMAJOR_AXIS":"6925.366","TIME_SYSTEM":"UTC","TLE_LINE2":"2 46541  53.0565 126.9711 0001665 100.2237 259.8940 15.06394406 71122","DECAY_DATE":null,"TLE_LINE1":"1 46541U 20070K   22012.62670466 -.00001426  00000-0 -76872-4 0  9992","CENTER_NAME":"EARTH","ARG_OF_PERICENTER":"100.2237","MEAN_ANOMALY":"259.8940","MEAN_MOTION_DDOT":"0.0000000000000","BSTAR":"-0.00007687200000","MEAN_ELEMENT_THEORY":"SGP4","SITE":"AFETR","LAUNCH_DATE":"2020-10-06","PERIOD":"95.592","REF_FRAME":"TEME","MEAN_MOTION":"15.06394406","REV_AT_EPOCH":"7112","EPOCH":"2022-01-12T15:02:27.282624","PERIAPSIS":"546.078","FILE":"3270572","OBJECT_ID":"2020-070K"},{"CLASSIFICATION_TYPE":"U","RCS_SIZE":"LARGE","ELEMENT_SET_NO":"999","COUNTRY_CODE":"US","RA_OF_ASC_NODE":"146.9732","APOAPSIS":"548.491","ECCENTRICITY":"0.00018530","GP_ID":"193709097","OBJECT_NAME":"STARLINK-1692","OBJECT_TYPE":"PAYLOAD","EPHEMERIS_TYPE":"0","NORAD_CAT_ID":"46542","MEAN_MOTION_DOT":"-0.00000431","INCLINATION":"53.0540","TLE_LINE2":"2 46542  53.0540 146.9732 0001853 100.0016 260.1182 15.06401975 70866","SEMIMAJOR_AXIS":"6925.343","TIME_SYSTEM":"UTC","ARG_OF_PERICENTER":"100.0016","CENTER_NAME":"EARTH","TLE_LINE1":"1 46542U 20070L   22012.62853904 -.00000431  00000-0 -10033-4 0  9995","DECAY_DATE":null,"MEAN_MOTION_DDOT":"0.0000000000000","MEAN_ANOMALY":"260.1182","LAUNCH_DATE":"2020-10-06","SITE":"AFETR","MEAN_ELEMENT_THEORY":"SGP4","BSTAR":"-0.00001003300000","REV_AT_EPOCH":"7086","MEAN_MOTION":"15.06401975","REF_FRAME":"TEME","PERIOD":"95.592","OBJECT_ID":"2020-070L","FILE":"3270573","PERIAPSIS":"545.924","EPOCH":"2022-01-12T15:05:05.773056"},{"TLE_LINE2":"2 46543  53.0532 147.3269 0001499  80.5217 279.5941 15.06395051 70830","SEMIMAJOR_AXIS":"6925.364","TIME_SYSTEM":"UTC","CENTER_NAME":"EARTH","ARG_OF_PERICENTER":"80.5217","DECAY_DATE":null,"TLE_LINE1":"1 46543U 20070M   22012.54745721 -.00000285  00000-0 -23005-6 0  9996","RCS_SIZE":"LARGE","CLASSIFICATION_TYPE":"U","ELEMENT_SET_NO":"999","RA_OF_ASC_NODE":"147.3269","COUNTRY_CODE":"US","EPHEMERIS_TYPE":"0","OBJECT_TYPE":"PAYLOAD","NORAD_CAT_ID":"46543","OBJECT_NAME":"STARLINK-1693","INCLINATION":"53.0532","MEAN_MOTION_DOT":"-0.00000285","APOAPSIS":"548.267","GP_ID":"193733312","ECCENTRICITY":"0.00014990","REV_AT_EPOCH":"7083","REF_FRAME":"TEME","PERIOD":"95.592","MEAN_MOTION":"15.06395051","FILE":"3270709","OBJECT_ID":"2020-070M","EPOCH":"2022-01-12T13:08:20.302944","PERIAPSIS":"546.191","MEAN_MOTION_DDOT":"0.0000000000000","MEAN_ANOMALY":"279.5941","LAUNCH_DATE":"2020-10-06","MEAN_ELEMENT_THEORY":"SGP4","BSTAR":"-0.00000023005000","SITE":"AFETR"}];
